{
  "type": "FeatureCollection",
  "features": [
    {
      "type": "Feature",
      "properties": {
        "norad_id": 41859,
        "name": "GSAT0207 (GALILEO 15)",
        "group": "gnss",
        "lat": 54.70562911339996,
        "lon": -176.1686385032898,
        "alt_km": 23218.5923357746,
        "timestamp": "2025-12-02T08:59:32.956991+00:00",
        "meta_object_name": "GSAT0207 (GALILEO 15)",
        "meta_object_id": "2016-069A",
        "meta_epoch": "2025-11-30T11:31:32.297952",
        "meta_mean_motion": 1.70474248,
        "meta_eccentricity": 0.00020596,
        "meta_inclination": 55.375,
        "meta_ra_of_asc_node": 106.5899,
        "meta_arg_of_pericenter": 325.7449,
        "meta_mean_anomaly": 34.2162,
        "meta_ephemeris_type": 0,
        "meta_classification_type": "U",
        "meta_norad_cat_id": 41859,
        "meta_element_set_no": 999,
        "meta_rev_at_epoch": 5601,
        "meta_bstar": 0,
        "meta_mean_motion_dot": 4.7e-07,
        "meta_mean_motion_ddot": 0,
        "tle_line1": "1 41859U 16069A   25334.48023493  .00000047  00000+0  00000+0 0  9998",
        "tle_line2": "2 41859  55.3750 106.5899 0002059 325.7449  34.2162  1.70474248 56019"
      },
      "geometry": {
        "type": "Point",
        "coordinates": [
          -176.1686385032898,
          54.70562911339996
        ]
      }
    },
    {
      "type": "Feature",
      "properties": {
        "norad_id": 41860,
        "name": "GSAT0212 (GALILEO 16)",
        "group": "gnss",
        "lat": 6.112304624061002,
        "lon": -77.72982164620285,
        "alt_km": 23226.53150861791,
        "timestamp": "2025-12-02T08:59:32.957002+00:00",
        "meta_object_name": "GSAT0212 (GALILEO 16)",
        "meta_object_id": "2016-069B",
        "meta_epoch": "2025-12-01T12:10:10.642368",
        "meta_mean_motion": 1.70474441,
        "meta_eccentricity": 0.00022648,
        "meta_inclination": 55.3731,
        "meta_ra_of_asc_node": 106.5568,
        "meta_arg_of_pericenter": 35.1599,
        "meta_mean_anomaly": 324.8229,
        "meta_ephemeris_type": 0,
        "meta_classification_type": "U",
        "meta_norad_cat_id": 41860,
        "meta_element_set_no": 999,
        "meta_rev_at_epoch": 5628,
        "meta_bstar": 0,
        "meta_mean_motion_dot": 3.8e-07,
        "meta_mean_motion_ddot": 0,
        "tle_line1": "1 41860U 16069B   25335.50706762  .00000038  00000+0  00000+0 0  9991",
        "tle_line2": "2 41860  55.3731 106.5568 0002264  35.1599 324.8229  1.70474441 56285"
      },
      "geometry": {
        "type": "Point",
        "coordinates": [
          -77.72982164620285,
          6.112304624061002
        ]
      }
    },
    {
      "type": "Feature",
      "properties": {
        "norad_id": 41861,
        "name": "GSAT0213 (GALILEO 17)",
        "group": "gnss",
        "lat": -41.1551839125018,
        "lon": 69.38848937206338,
        "alt_km": 23221.34237009847,
        "timestamp": "2025-12-02T08:59:32.957013+00:00",
        "meta_object_name": "GSAT0213 (GALILEO 17)",
        "meta_object_id": "2016-069C",
        "meta_epoch": "2025-12-01T20:59:28.953888",
        "meta_mean_motion": 1.70474717,
        "meta_eccentricity": 0.0002063,
        "meta_inclination": 55.3756,
        "meta_ra_of_asc_node": 106.5542,
        "meta_arg_of_pericenter": 284.0381,
        "meta_mean_anomaly": 75.9044,
        "meta_ephemeris_type": 0,
        "meta_classification_type": "U",
        "meta_norad_cat_id": 41861,
        "meta_element_set_no": 999,
        "meta_rev_at_epoch": 5615,
        "meta_bstar": 0,
        "meta_mean_motion_dot": 3.5e-07,
        "meta_mean_motion_ddot": 0,
        "tle_line1": "1 41861U 16069C   25335.87464067  .00000035  00000+0  00000+0 0  9998",
        "tle_line2": "2 41861  55.3756 106.5542 0002063 284.0381  75.9044  1.70474717 56157"
      },
      "geometry": {
        "type": "Point",
        "coordinates": [
          69.38848937206338,
          -41.1551839125018
        ]
      }
    },
    {
      "type": "Feature",
      "properties": {
        "norad_id": 41862,
        "name": "GSAT0214 (GALILEO 18)",
        "group": "gnss",
        "lat": -29.919834380488854,
        "lon": -50.06797212101741,
        "alt_km": 23225.1093062642,
        "timestamp": "2025-12-02T08:59:32.957026+00:00",
        "meta_object_name": "GSAT0214 (GALILEO 18)",
        "meta_object_id": "2016-069D",
        "meta_epoch": "2025-11-29T16:11:01.864032",
        "meta_mean_motion": 1.70474561,
        "meta_eccentricity": 0.00010374,
        "meta_inclination": 55.3728,
        "meta_ra_of_asc_node": 106.6081,
        "meta_arg_of_pericenter": 291.61,
        "meta_mean_anomaly": 68.3572,
        "meta_ephemeris_type": 0,
        "meta_classification_type": "U",
        "meta_norad_cat_id": 41862,
        "meta_element_set_no": 999,
        "meta_rev_at_epoch": 5624,
        "meta_bstar": 0,
        "meta_mean_motion_dot": 5.1e-07,
        "meta_mean_motion_ddot": 0,
        "tle_line1": "1 41862U 16069D   25333.67432713  .00000051  00000+0  00000+0 0  9996",
        "tle_line2": "2 41862  55.3728 106.6081 0001037 291.6100  68.3572  1.70474561 56248"
      },
      "geometry": {
        "type": "Point",
        "coordinates": [
          -50.06797212101741,
          -29.919834380488854
        ]
      }
    },
    {
      "type": "Feature",
      "properties": {
        "norad_id": 42709,
        "name": "SES-15 (WAAS/PRN 133)",
        "group": "gnss",
        "lat": 0.038834059713626995,
        "lon": 77.15462828991042,
        "alt_km": 35788.383361465196,
        "timestamp": "2025-12-02T08:59:32.957038+00:00",
        "meta_object_name": "SES-15 (WAAS/PRN 133)",
        "meta_object_id": "2017-026A",
        "meta_epoch": "2025-12-01T20:45:55.897056",
        "meta_mean_motion": 1.00268136,
        "meta_eccentricity": 3.16e-05,
        "meta_inclination": 0.0202,
        "meta_ra_of_asc_node": 339.5889,
        "meta_arg_of_pericenter": 268.6363,
        "meta_mean_anomaly": 5.0585,
        "meta_ephemeris_type": 0,
        "meta_classification_type": "U",
        "meta_norad_cat_id": 42709,
        "meta_element_set_no": 999,
        "meta_rev_at_epoch": 545,
        "meta_bstar": 0,
        "meta_mean_motion_dot": 8.1e-07,
        "meta_mean_motion_ddot": 0,
        "tle_line1": "1 42709U 17026A   25335.86523029  .00000081  00000+0  00000+0 0  9998",
        "tle_line2": "2 42709   0.0202 339.5889 0000316 268.6363   5.0585  1.00268136  5451"
      },
      "geometry": {
        "type": "Point",
        "coordinates": [
          77.15462828991042,
          0.038834059713626995
        ]
      }
    },
    {
      "type": "Feature",
      "properties": {
        "norad_id": 42738,
        "name": "QZS-2 (QZSS/PRN 194)",
        "group": "gnss",
        "lat": 39.05675388361092,
        "lon": -11.065184688413977,
        "alt_km": 38906.38763657456,
        "timestamp": "2025-12-02T08:59:32.957050+00:00",
        "meta_object_name": "QZS-2 (QZSS/PRN 194)",
        "meta_object_id": "2017-028A",
        "meta_epoch": "2025-11-29T15:03:38.649888",
        "meta_mean_motion": 1.0028652,
        "meta_eccentricity": 0.07597264,
        "meta_inclination": 39.7358,
        "meta_ra_of_asc_node": 246.0747,
        "meta_arg_of_pericenter": 269.3342,
        "meta_mean_anomaly": 280.5316,
        "meta_ephemeris_type": 0,
        "meta_classification_type": "U",
        "meta_norad_cat_id": 42738,
        "meta_element_set_no": 999,
        "meta_rev_at_epoch": 562,
        "meta_bstar": 0,
        "meta_mean_motion_dot": -1.6e-06,
        "meta_mean_motion_ddot": 0,
        "tle_line1": "1 42738U 17028A   25333.62753067 -.00000160  00000+0  00000+0 0  9990",
        "tle_line2": "2 42738  39.7358 246.0747 0759726 269.3342 280.5316  1.00286520  5628"
      },
      "geometry": {
        "type": "Point",
        "coordinates": [
          -11.065184688413977,
          39.05675388361092
        ]
      }
    },
    {
      "type": "Feature",
      "properties": {
        "norad_id": 42917,
        "name": "QZS-3 (QZSS/PRN 199)",
        "group": "gnss",
        "lat": 0.07698123765906993,
        "lon": -26.721957278101737,
        "alt_km": 35787.294710918875,
        "timestamp": "2025-12-02T08:59:32.957062+00:00",
        "meta_object_name": "QZS-3 (QZSS/PRN 199)",
        "meta_object_id": "2017-048A",
        "meta_epoch": "2025-12-01T22:58:40.655136",
        "meta_mean_motion": 1.00265337,
        "meta_eccentricity": 0.000131,
        "meta_inclination": 0.0756,
        "meta_ra_of_asc_node": 225.3339,
        "meta_arg_of_pericenter": 24.6759,
        "meta_mean_anomaly": 292.6625,
        "meta_ephemeris_type": 0,
        "meta_classification_type": "U",
        "meta_norad_cat_id": 42917,
        "meta_element_set_no": 999,
        "meta_rev_at_epoch": 3028,
        "meta_bstar": 0,
        "meta_mean_motion_dot": -3.27e-06,
        "meta_mean_motion_ddot": 0,
        "tle_line1": "1 42917U 17048A   25335.95741499 -.00000327  00000+0  00000+0 0  9990",
        "tle_line2": "2 42917   0.0756 225.3339 0001310  24.6759 292.6625  1.00265337 30280"
      },
      "geometry": {
        "type": "Point",
        "coordinates": [
          -26.721957278101737,
          0.07698123765906993
        ]
      }
    }
  ]
}